[{"OBJECT_NAME":"STARLINK-35282","OBJECT_ID":"2025-211G","EPOCH":"2026-03-09T16:56:07.373760","MEAN_MOTION":15.05636331,"ECCENTRICITY":0.00013166,"INCLINATION":97.602,"RA_OF_ASC_NODE":114.0713,"ARG_OF_PERICENTER":98.4023,"MEAN_ANOMALY":261.7353,"EPHEMERIS_TYPE":0,"CLASSIFICATION_TYPE":"U","NORAD_CAT_ID":65658,"ELEMENT_SET_NO":999,"REV_AT_EPOCH":2704,"BSTAR":-0.00024418643,"MEAN_MOTION_DOT":-3.581e-5,"MEAN_MOTION_DDOT":0},{"OBJECT_NAME":"CZ-6A R\/B","OBJECT_ID":"2022-031C","EPOCH":"2026-03-09T19:50:55.360896","MEAN_MOTION":15.07476837,"ECCENTRICITY":0.00174842,"INCLINATION":97.8104,"RA_OF_ASC_NODE":273.2347,"ARG_OF_PERICENTER":181.6412,"MEAN_ANOMALY":178.4761,"EPHEMERIS_TYPE":0,"CLASSIFICATION_TYPE":"U","NORAD_CAT_ID":52152,"ELEMENT_SET_NO":999,"REV_AT_EPOCH":21633,"BSTAR":0.00020233161,"MEAN_MOTION_DOT":3.012e-5,"MEAN_MOTION_DDOT":0}]
